[{"OBJECT_NAME":"STARLINK-30281","OBJECT_ID":"2023-129U","EPOCH":"2026-03-09T22:00:01.999584","MEAN_MOTION":15.26734456,"ECCENTRICITY":0.00011071,"INCLINATION":43.0001,"RA_OF_ASC_NODE":116.902,"ARG_OF_PERICENTER":261.9305,"MEAN_ANOMALY":108.6731,"EPHEMERIS_TYPE":0,"CLASSIFICATION_TYPE":"U","NORAD_CAT_ID":57716,"ELEMENT_SET_NO":999,"REV_AT_EPOCH":557,"BSTAR":0.00019526642,"MEAN_MOTION_DOT":4.981e-5,"MEAN_MOTION_DDOT":0},{"OBJECT_NAME":"LYNK TOWER 5","OBJECT_ID":"2024-043Z","EPOCH":"2026-03-09T22:11:51.175104","MEAN_MOTION":15.29454506,"ECCENTRICITY":0.00104056,"INCLINATION":97.5458,"RA_OF_ASC_NODE":204.7305,"ARG_OF_PERICENTER":234.6422,"MEAN_ANOMALY":125.3846,"EPHEMERIS_TYPE":0,"CLASSIFICATION_TYPE":"U","NORAD_CAT_ID":59121,"ELEMENT_SET_NO":999,"REV_AT_EPOCH":11186,"BSTAR":0.00031901545,"MEAN_MOTION_DOT":9.048e-5,"MEAN_MOTION_DDOT":0}]
